{
    "CCSDS_OMM_VERS": "3.0",
    "COMMENT": "GENERATED VIA SPACE-TRACK.ORG API",
    "CREATION_DATE": "2025-11-22T18:56:57",
    "ORIGINATOR": "18 SPCS",
    "OBJECT_NAME": "GALILEO 13 (26A)",
    "OBJECT_ID": "2016-030B",
    "CENTER_NAME": "EARTH",
    "REF_FRAME": "TEME",
    "TIME_SYSTEM": "UTC",
    "MEAN_ELEMENT_THEORY": "SGP4",
    "EPOCH": "2025-11-21T23:45:10.533600",
    "MEAN_MOTION": "1.70473622",
    "ECCENTRICITY": "0.00015811",
    "INCLINATION": "55.1592",
    "RA_OF_ASC_NODE": "227.3928",
    "ARG_OF_PERICENTER": "247.3188",
    "MEAN_ANOMALY": "112.7433",
    "EPHEMERIS_TYPE": "0",
    "CLASSIFICATION_TYPE": "U",
    "NORAD_CAT_ID": "41550",
    "ELEMENT_SET_NO": "999",
    "REV_AT_EPOCH": "5913",
    "BSTAR": "0.00000000000000",
    "MEAN_MOTION_DOT": "0.00000024",
    "MEAN_MOTION_DDOT": "0.0000000000000",
    "SEMIMAJOR_AXIS": "29600.364",
    "PERIOD": "844.705",
    "APOAPSIS": "23226.909",
    "PERIAPSIS": "23217.549",
    "OBJECT_TYPE": "PAYLOAD",
    "RCS_SIZE": "LARGE",
    "COUNTRY_CODE": "ESA",
    "LAUNCH_DATE": "2016-05-24",
    "SITE": "FRGUI",
    "DECAY_DATE": null,
    "FILE": "4894246",
    "GP_ID": "303253022",
    "TLE_LINE0": "0 GALILEO 13 (26A)",
    "TLE_LINE1": "1 41550U 16030B   25325.98970525  .00000024  00000-0  00000-0 0  9993",
    "TLE_LINE2": "2 41550  55.1592 227.3928 0001581 247.3188 112.7433  1.70473622 59136"
}